[{"OBJECT_NAME":"FENGYUN 1C DEB","OBJECT_ID":"1999-025YK","EPOCH":"2026-03-07T08:43:19.431840","MEAN_MOTION":14.53753062,"ECCENTRICITY":0.00022881,"INCLINATION":99.3035,"RA_OF_ASC_NODE":209.1728,"ARG_OF_PERICENTER":269.1666,"MEAN_ANOMALY":145.6367,"EPHEMERIS_TYPE":0,"CLASSIFICATION_TYPE":"U","NORAD_CAT_ID":30274,"ELEMENT_SET_NO":999,"REV_AT_EPOCH":99439,"BSTAR":0.0039550624,"MEAN_MOTION_DOT":0.00016571,"MEAN_MOTION_DDOT":0},{"OBJECT_NAME":"FENGYUN 1C DEB","OBJECT_ID":"1999-025YL","EPOCH":"2026-03-07T11:41:53.254752","MEAN_MOTION":14.46728947,"ECCENTRICITY":0.00361692,"INCLINATION":98.6191,"RA_OF_ASC_NODE":157.183,"ARG_OF_PERICENTER":288.7462,"MEAN_ANOMALY":134.3195,"EPHEMERIS_TYPE":0,"CLASSIFICATION_TYPE":"U","NORAD_CAT_ID":30275,"ELEMENT_SET_NO":999,"REV_AT_EPOCH":99309,"BSTAR":0.0026941527,"MEAN_MOTION_DOT":9.788e-5,"MEAN_MOTION_DDOT":0},{"OBJECT_NAME":"FENGYUN 1C DEB","OBJECT_ID":"1999-025YM","EPOCH":"2026-03-07T04:38:57.155712","MEAN_MOTION":14.27643052,"ECCENTRICITY":0.00259956,"INCLINATION":98.849,"RA_OF_ASC_NODE":143.8404,"ARG_OF_PERICENTER":198.6622,"MEAN_ANOMALY":161.3607,"EPHEMERIS_TYPE":0,"CLASSIFICATION_TYPE":"U","NORAD_CAT_ID":30276,"ELEMENT_SET_NO":999,"REV_AT_EPOCH":98735,"BSTAR":0.0013200439,"MEAN_MOTION_DOT":3.219e-5,"MEAN_MOTION_DDOT":0},{"OBJECT_NAME":"FENGYUN 1C DEB","OBJECT_ID":"1999-025YN","EPOCH":"2026-03-07T03:27:44.896896","MEAN_MOTION":14.1399533,"ECCENTRICITY":0.01206105,"INCLINATION":98.961,"RA_OF_ASC_NODE":142.0872,"ARG_OF_PERICENTER":298.7321,"MEAN_ANOMALY":89.9401,"EPHEMERIS_TYPE":0,"CLASSIFICATION_TYPE":"U","NORAD_CAT_ID":30277,"ELEMENT_SET_NO":999,"REV_AT_EPOCH":97982,"BSTAR":0.0010399188,"MEAN_MOTION_DOT":2.072e-5,"MEAN_MOTION_DDOT":0},{"OBJECT_NAME":"FENGYUN 1C DEB","OBJECT_ID":"1999-025YQ","EPOCH":"2026-03-07T09:41:44.438784","MEAN_MOTION":14.23540785,"ECCENTRICITY":0.02172467,"INCLINATION":99.158,"RA_OF_ASC_NODE":9.5646,"ARG_OF_PERICENTER":190.3174,"MEAN_ANOMALY":294.6975,"EPHEMERIS_TYPE":0,"CLASSIFICATION_TYPE":"U","NORAD_CAT_ID":30279,"ELEMENT_SET_NO":999,"REV_AT_EPOCH":98815,"BSTAR":0.0005526312,"MEAN_MOTION_DOT":1.552e-5,"MEAN_MOTION_DDOT":0},{"OBJECT_NAME":"FENGYUN 1C DEB","OBJECT_ID":"1999-025YR","EPOCH":"2026-03-07T12:43:44.827680","MEAN_MOTION":13.98396943,"ECCENTRICITY":0.00812972,"INCLINATION":98.784,"RA_OF_ASC_NODE":57.2863,"ARG_OF_PERICENTER":94.0629,"MEAN_ANOMALY":26.755,"EPHEMERIS_TYPE":0,"CLASSIFICATION_TYPE":"U","NORAD_CAT_ID":30280,"ELEMENT_SET_NO":999,"REV_AT_EPOCH":97591,"BSTAR":0.00019654183,"MEAN_MOTION_DOT":2.48e-6,"MEAN_MOTION_DDOT":0},{"OBJECT_NAME":"FENGYUN 1C DEB","OBJECT_ID":"1999-025YS","EPOCH":"2026-03-07T12:52:43.277664","MEAN_MOTION":14.10555433,"ECCENTRICITY":0.00288456,"INCLINATION":98.7659,"RA_OF_ASC_NODE":59.1891,"ARG_OF_PERICENTER":0.0141,"MEAN_ANOMALY":119.1202,"EPHEMERIS_TYPE":0,"CLASSIFICATION_TYPE":"U","NORAD_CAT_ID":30281,"ELEMENT_SET_NO":999,"REV_AT_EPOCH":98416,"BSTAR":0.00027445831,"MEAN_MOTION_DOT":4.48e-6,"MEAN_MOTION_DDOT":0},{"OBJECT_NAME":"FENGYUN 1C DEB","OBJECT_ID":"1999-025YT","EPOCH":"2026-03-07T12:15:25.648128","MEAN_MOTION":14.13095561,"ECCENTRICITY":0.02109869,"INCLINATION":98.5052,"RA_OF_ASC_NODE":70.6016,"ARG_OF_PERICENTER":118.5485,"MEAN_ANOMALY":31.0968,"EPHEMERIS_TYPE":0,"CLASSIFICATION_TYPE":"U","NORAD_CAT_ID":30282,"ELEMENT_SET_NO":999,"REV_AT_EPOCH":98548,"BSTAR":0.00027449208,"MEAN_MOTION_DOT":5.93e-6,"MEAN_MOTION_DDOT":0},{"OBJECT_NAME":"FENGYUN 1C DEB","OBJECT_ID":"1999-025YU","EPOCH":"2026-03-07T13:01:27.763680","MEAN_MOTION":14.02023606,"ECCENTRICITY":0.01832016,"INCLINATION":98.8732,"RA_OF_ASC_NODE":62.9776,"ARG_OF_PERICENTER":166.3584,"MEAN_ANOMALY":313.0365,"EPHEMERIS_TYPE":0,"CLASSIFICATION_TYPE":"U","NORAD_CAT_ID":30283,"ELEMENT_SET_NO":999,"REV_AT_EPOCH":97879,"BSTAR":-0.00011571838,"MEAN_MOTION_DOT":-2.47e-6,"MEAN_MOTION_DDOT":0},{"OBJECT_NAME":"FENGYUN 1C DEB","OBJECT_ID":"1999-025YV","EPOCH":"2026-03-07T15:37:45.221376","MEAN_MOTION":14.29443993,"ECCENTRICITY":0.0038211,"INCLINATION":98.7098,"RA_OF_ASC_NODE":140.078,"ARG_OF_PERICENTER":215.9894,"MEAN_ANOMALY":303.213,"EPHEMERIS_TYPE":0,"CLASSIFICATION_TYPE":"U","NORAD_CAT_ID":30284,"ELEMENT_SET_NO":999,"REV_AT_EPOCH":98728,"BSTAR":0.0018382507,"MEAN_MOTION_DOT":4.686e-5,"MEAN_MOTION_DDOT":0},{"OBJECT_NAME":"FENGYUN 1C DEB","OBJECT_ID":"1999-025YX","EPOCH":"2026-03-07T14:54:52.949952","MEAN_MOTION":14.12762807,"ECCENTRICITY":0.00628493,"INCLINATION":98.6927,"RA_OF_ASC_NODE":73.4772,"ARG_OF_PERICENTER":251.2913,"MEAN_ANOMALY":231.954,"EPHEMERIS_TYPE":0,"CLASSIFICATION_TYPE":"U","NORAD_CAT_ID":30286,"ELEMENT_SET_NO":999,"REV_AT_EPOCH":98657,"BSTAR":0.00012200883,"MEAN_MOTION_DOT":1.88e-6,"MEAN_MOTION_DDOT":0},{"OBJECT_NAME":"FENGYUN 1C DEB","OBJECT_ID":"1999-025YY","EPOCH":"2026-03-07T14:26:10.713696","MEAN_MOTION":13.68887456,"ECCENTRICITY":0.04139251,"INCLINATION":98.6278,"RA_OF_ASC_NODE":97.2147,"ARG_OF_PERICENTER":146.4925,"MEAN_ANOMALY":344.6113,"EPHEMERIS_TYPE":0,"CLASSIFICATION_TYPE":"U","NORAD_CAT_ID":30287,"ELEMENT_SET_NO":999,"REV_AT_EPOCH":95019,"BSTAR":0.0010499687,"MEAN_MOTION_DOT":1.617e-5,"MEAN_MOTION_DDOT":0},{"OBJECT_NAME":"FENGYUN 1C DEB","OBJECT_ID":"1999-025YZ","EPOCH":"2026-03-07T05:01:18.705792","MEAN_MOTION":14.33604247,"ECCENTRICITY":0.00223473,"INCLINATION":99.3872,"RA_OF_ASC_NODE":159.9355,"ARG_OF_PERICENTER":89.3297,"MEAN_ANOMALY":300.8979,"EPHEMERIS_TYPE":0,"CLASSIFICATION_TYPE":"U","NORAD_CAT_ID":30288,"ELEMENT_SET_NO":999,"REV_AT_EPOCH":98779,"BSTAR":0.0018748957,"MEAN_MOTION_DOT":5.161e-5,"MEAN_MOTION_DDOT":0},{"OBJECT_NAME":"FENGYUN 1C DEB","OBJECT_ID":"1999-025ZA","EPOCH":"2026-03-07T12:46:49.173312","MEAN_MOTION":14.26893693,"ECCENTRICITY":0.0038318,"INCLINATION":98.9212,"RA_OF_ASC_NODE":169.6307,"ARG_OF_PERICENTER":92.1942,"MEAN_ANOMALY":36.1156,"EPHEMERIS_TYPE":0,"CLASSIFICATION_TYPE":"U","NORAD_CAT_ID":30289,"ELEMENT_SET_NO":999,"REV_AT_EPOCH":98290,"BSTAR":0.0027670521,"MEAN_MOTION_DOT":6.731e-5,"MEAN_MOTION_DDOT":0},{"OBJECT_NAME":"FENGYUN 1C DEB","OBJECT_ID":"1999-025ZB","EPOCH":"2026-03-07T09:28:53.000832","MEAN_MOTION":14.83337104,"ECCENTRICITY":0.00204608,"INCLINATION":102.6183,"RA_OF_ASC_NODE":220.7354,"ARG_OF_PERICENTER":200.8727,"MEAN_ANOMALY":186.7669,"EPHEMERIS_TYPE":0,"CLASSIFICATION_TYPE":"U","NORAD_CAT_ID":30290,"ELEMENT_SET_NO":999,"REV_AT_EPOCH":99130,"BSTAR":0.010217826,"MEAN_MOTION_DOT":0.00085013,"MEAN_MOTION_DDOT":0},{"OBJECT_NAME":"FENGYUN 1C DEB","OBJECT_ID":"1999-025ZC","EPOCH":"2026-03-07T15:41:53.442528","MEAN_MOTION":14.57611795,"ECCENTRICITY":0.01069013,"INCLINATION":97.2269,"RA_OF_ASC_NODE":309.2502,"ARG_OF_PERICENTER":107.8731,"MEAN_ANOMALY":308.0444,"EPHEMERIS_TYPE":0,"CLASSIFICATION_TYPE":"U","NORAD_CAT_ID":30291,"ELEMENT_SET_NO":999,"REV_AT_EPOCH":98944,"BSTAR":0.0028656417,"MEAN_MOTION_DOT":0.00014105,"MEAN_MOTION_DDOT":0},{"OBJECT_NAME":"FENGYUN 1C DEB","OBJECT_ID":"1999-025ZE","EPOCH":"2026-03-07T13:06:10.384992","MEAN_MOTION":14.4953145,"ECCENTRICITY":0.00752307,"INCLINATION":99.2546,"RA_OF_ASC_NODE":270.661,"ARG_OF_PERICENTER":222.6681,"MEAN_ANOMALY":194.9817,"EPHEMERIS_TYPE":0,"CLASSIFICATION_TYPE":"U","NORAD_CAT_ID":30293,"ELEMENT_SET_NO":999,"REV_AT_EPOCH":204,"BSTAR":0.0011531362,"MEAN_MOTION_DOT":4.531e-5,"MEAN_MOTION_DDOT":0},{"OBJECT_NAME":"FENGYUN 1C DEB","OBJECT_ID":"1999-025ZF","EPOCH":"2026-03-07T12:09:02.330208","MEAN_MOTION":14.35151176,"ECCENTRICITY":0.01988945,"INCLINATION":98.3658,"RA_OF_ASC_NODE":57.1352,"ARG_OF_PERICENTER":56.5689,"MEAN_ANOMALY":68.3431,"EPHEMERIS_TYPE":0,"CLASSIFICATION_TYPE":"U","NORAD_CAT_ID":30294,"ELEMENT_SET_NO":999,"REV_AT_EPOCH":99752,"BSTAR":0.00057499928,"MEAN_MOTION_DOT":2.008e-5,"MEAN_MOTION_DDOT":0},{"OBJECT_NAME":"FENGYUN 1C DEB","OBJECT_ID":"1999-025ZG","EPOCH":"2026-03-07T13:16:33.570912","MEAN_MOTION":14.25130537,"ECCENTRICITY":0.00931281,"INCLINATION":98.5019,"RA_OF_ASC_NODE":91.4097,"ARG_OF_PERICENTER":193.7547,"MEAN_ANOMALY":318.4228,"EPHEMERIS_TYPE":0,"CLASSIFICATION_TYPE":"U","NORAD_CAT_ID":30295,"ELEMENT_SET_NO":999,"REV_AT_EPOCH":99384,"BSTAR":0.00018684551,"MEAN_MOTION_DOT":4.16e-6,"MEAN_MOTION_DDOT":0},{"OBJECT_NAME":"FENGYUN 1C DEB","OBJECT_ID":"1999-025ZJ","EPOCH":"2026-03-07T08:08:17.383776","MEAN_MOTION":14.24305158,"ECCENTRICITY":0.036858,"INCLINATION":98.8202,"RA_OF_ASC_NODE":23.2074,"ARG_OF_PERICENTER":230.8727,"MEAN_ANOMALY":287.6788,"EPHEMERIS_TYPE":0,"CLASSIFICATION_TYPE":"U","NORAD_CAT_ID":30297,"ELEMENT_SET_NO":999,"REV_AT_EPOCH":96355,"BSTAR":0.0029186,"MEAN_MOTION_DOT":0.00013696,"MEAN_MOTION_DDOT":0},{"OBJECT_NAME":"FENGYUN 1C DEB","OBJECT_ID":"1999-025ZK","EPOCH":"2026-03-07T05:57:32.575680","MEAN_MOTION":14.20686136,"ECCENTRICITY":0.004781,"INCLINATION":98.9946,"RA_OF_ASC_NODE":163.6477,"ARG_OF_PERICENTER":241.108,"MEAN_ANOMALY":145.045,"EPHEMERIS_TYPE":0,"CLASSIFICATION_TYPE":"U","NORAD_CAT_ID":30298,"ELEMENT_SET_NO":999,"REV_AT_EPOCH":98034,"BSTAR":0.0025061,"MEAN_MOTION_DOT":5.42e-5,"MEAN_MOTION_DDOT":0},{"OBJECT_NAME":"FENGYUN 1C DEB","OBJECT_ID":"1999-025ZL","EPOCH":"2026-03-07T10:52:22.230912","MEAN_MOTION":14.08279071,"ECCENTRICITY":0.01065455,"INCLINATION":99.0837,"RA_OF_ASC_NODE":144.2833,"ARG_OF_PERICENTER":131.8399,"MEAN_ANOMALY":293.5657,"EPHEMERIS_TYPE":0,"CLASSIFICATION_TYPE":"U","NORAD_CAT_ID":30299,"ELEMENT_SET_NO":999,"REV_AT_EPOCH":97482,"BSTAR":0.0020640257,"MEAN_MOTION_DOT":3.673e-5,"MEAN_MOTION_DDOT":0},{"OBJECT_NAME":"FENGYUN 1C DEB","OBJECT_ID":"1999-025ZM","EPOCH":"2026-03-07T04:10:26.172192","MEAN_MOTION":14.27933724,"ECCENTRICITY":0.00726866,"INCLINATION":99.0331,"RA_OF_ASC_NODE":143.3579,"ARG_OF_PERICENTER":54.4218,"MEAN_ANOMALY":335.0982,"EPHEMERIS_TYPE":0,"CLASSIFICATION_TYPE":"U","NORAD_CAT_ID":30300,"ELEMENT_SET_NO":999,"REV_AT_EPOCH":98189,"BSTAR":0.0020378479,"MEAN_MOTION_DOT":5.15e-5,"MEAN_MOTION_DDOT":0}]
